#cP2024  2 27 18  0  0.00000000     577 d+D   IGS20 EXT AIUB
## 2303 237600.00000000   300.00000000 60367 0.7500000000000
+   78   G01G02G03G04G05G06G07G08G09G10G11G12G13G14G15G16G17
+        G18G19G20G21G22G23G24G25G26G27G28G29G30G31G32R01R02
+        R03R04R05R07R08R09R11R12R13R14R15R16R17R18R19R21R22
+        R24R26E02E03E04E05E07E08E09E10E11E12E13E14E15E18E19
+        E21E24E25E26E27E30E31E33E34E36  0  0  0  0  0  0  0
++         6  7  5  6  7  6  7  7  6  6  7  7  7  6  7  7  7
++         7  7  7  7  7  6  6  5  6  6  7  7  6  7  6  9  7
++         7  7  7  8  7  6  6  6  8  6  7  7  8  8  8  7  7
++         8  6  5  6  7  7  7  7  7  7  6  7  7  7  7  7  7
++         5  5  5  7  6  6  6  7  7  7  0  0  0  0  0  0  0
%c M  cc GPS ccc cccc cccc cccc cccc ccccc ccccc ccccc ccccc
%c cc cc ccc ccc cccc cccc cccc cccc ccccc ccccc ccccc ccccc
%f  1.2500000  1.025000000  0.00000000000  0.000000000000000
%f  0.0000000  0.000000000  0.00000000000  0.000000000000000
%i    0    0    0    0      0      0      0      0         0
%i    0    0    0    0      0      0      0      0         0
/* Center for Orbit Determination in Europe (CODE)          
/* Ultra-rapid GRE orbits starting year-day 24058 18 hour   
/* Observed/predicted: 24/24 hours (data used up to 059R)   
/* PCV:IGS20      OL/AL:FES2014b NONE     YN ORB:CoN CLK:BRD
*  2024  2 29  2  0  0.00000000
PG01  13675.375526  12082.090353 -19768.228010    171.580569               P   P
PG02   4600.260777  14217.491825 -21481.792377   -478.073260               P   P
PG03  11364.786520  23352.677433  -6007.509935    222.590503               P   P
PG04   1460.792747  21242.734724  15804.882071    303.199296               P   P
PG05  -1670.013986 -20605.625347  16449.719476   -163.567838               P   P
PG06  25183.771659  -5987.287426   6269.363085    388.266854               P   P
PG07  23032.230985   6844.797515  12316.117289    -73.023293               P   P
PG08  -4047.010635  24648.752533  -8462.090989     18.596525               P   P
PG09  11977.028638  10092.011196  21364.291760    107.981527               P   P
PG10 -17828.890974  -2940.700167 -19372.113588      1.075634               P   P
PG11  17325.351395 -11894.549791  16238.373430   -591.313175               P   P
PG12  -9101.765788 -24160.151265  -6670.044893   -482.542441               P   P
PG13  13322.020707 -22774.486882  -1867.491195    629.807327               P   P
PG14  19219.275018   6620.870419 -17169.760323    338.001078               P   P
PG15    799.739162 -25161.588733  -8621.853045    132.580087               P   P
PG16  -5545.216761  17042.163706  19113.728259   -352.234344               P   P
PG17  17230.664713  -3735.478562 -19490.534050    715.415284               P   P
PG18 -23592.346649  -5827.244847  10948.932576   -565.624861               P   P
PG19  18764.061677 -11884.331044 -14472.377808    447.208277               P   P
PG20   9008.493329 -12713.608823  21582.860775    385.745720               P   P
PG21   -768.184439  15163.159065 -21222.104285    133.209138               P   P
PG22  15946.553004  -1253.483296 -20726.211149     23.642715               P   P
PG23 -19739.425246 -14052.495294 -11073.961158    166.319759               P   P
PG24  -2640.931182 -15761.190208 -21622.951172   -439.143386               P   P
PG25 -17027.601762 -20364.341974   2588.657591    489.968486               P   P
PG26 -13727.301586   8048.881530  21137.203570    185.111949               P   P
PG27 -12719.863739  22824.287761   2916.739120     -7.991857               P   P
PG28 -25804.275996   5375.749656   3224.928721   -147.147411               P   P
PG29  -9597.188271 -12526.314471  21296.032291   -605.957932               P   P
PG30  26630.990493   -747.954943   2018.734079   -426.361661               P   P
PG31 -21591.492528   9943.829771  12041.236969   -227.903850               P   P
PG32 -17438.381246   7489.270138 -18291.045471   -613.911590               P   P
PR01  -4815.784729  23411.990499  -8921.011331     78.358687               P   P
PR02   2600.847953  23812.252341   8723.293343    -22.538938               P   P
PR03   9418.632985  10681.696805  21199.273944     95.419586               P   P
PR04  10635.239496  -7794.179595  21873.024919    225.485277               P   P
PR05   6440.353486 -22214.971023  10799.410769    127.659181               P   P
PR07  -9553.882988  -9923.437800 -21434.564233     76.871666               P   P
PR08 -10620.285099   8111.010744 -21655.114155    -74.570999               P   P
PR09 -12783.886749 -16308.770968 -14805.407512    172.633645               P   P
PR11 -19482.922839  -3215.527251  16143.435817     32.830088               P   P
PR12  -4430.301475  10240.992274  22955.023567     37.243493               P   P
PR13  10668.079781  16091.250039  16648.049554    -44.821160               P   P
PR14  21932.094156  12960.947141  -1464.545315     26.120804               P   P
PR15  18756.269234   2228.068298 -17133.657536     81.800856               P   P
PR16   4583.231175  -9959.259317 -23028.260878     23.649076               P   P
PR17  17159.903980    999.132998 -18824.272422     65.004401               P   P
PR18  23401.891133  -8929.957743  -4964.728037    129.707159               P   P
PR19  19171.508517 -13539.012350   9996.876170   -267.566155               P   P
PR21 -17301.202652   -925.765726  18729.282500    -80.686926               P   P
PR22 -23648.243329   8706.415854   3919.571499    110.408246               P   P
PR24    924.127611  11496.810550 -22734.662727    -45.825360               P   P
PR26 -10679.755897   7152.024062 -22011.910546 999999.999999               P   P
PE02  -5190.010801  19357.140018  21765.267434    107.244299               P   P
PE03 -13599.687458  26279.476895   -974.867283    -96.956590               P   P
PE04   -974.934843 -24464.593631 -16624.325498   -338.279743               P   P
PE05 -20002.238370  12716.405441 -17724.268723   4724.508053               P   P
PE07  14549.303175   8805.784396  24235.085176   -106.264008               P   P
PE08    330.876754  24789.651705  16182.583070   -231.258367               P   P
PE09 -14364.313538  -8839.005161 -24319.417111   -352.980268               P   P
PE10 -17471.972084 -12045.033980  20631.150058   -605.556331               P   P
PE11 -25733.106259  -6679.441298  12984.864052   3214.578830               P   P
PE12  -7468.579042 -15209.485925  24267.105970   -926.847316               P   P
PE13  25361.958238   6994.055028 -13574.658933    -20.343296               P   P
PE14 -11712.690526 -11232.028624  18486.241062 999999.999999               P   P
PE15   6887.054568  15233.905586 -24420.136216    -88.452838               P   P
PE18   9182.510367  21136.516637 -21646.861257 999999.999999               P   P
PE19  14937.408516 -25368.406445   3108.051700   -524.988888               P   P
PE21  18122.125922  -1877.607304 -23336.375861   -581.429883               P   P
PE24 -20931.077399 -17851.672270  10937.367836   -624.258597               P   P
PE25 -18309.884874   1439.905003  23211.132339      1.497238               P   P
PE26  28524.442380  -5602.012328   5611.328309    382.403820               P   P
PE27  21046.856657  17459.756914 -11319.215529   -286.509243               P   P
PE30  11288.443983  26329.202683   7399.340883    -45.187909               P   P
PE31 -11531.267238 -26288.954337  -7237.438383    -17.089122               P   P
PE33  15905.556652 -14266.870913  20492.498585      8.307439               P   P
PE34 -15327.195527  14454.782512 -20792.815762    -97.249519               P   P
PE36 -28700.019810   5182.841419  -5005.268697   -192.476965               P   P
EOF
